{
  "type": "FeatureCollection",
  "features": [
    {
      "type": "Feature",
      "properties": {
        "norad_id": 66502,
        "name": "STARLINK-35922",
        "group": "last-30-days",
        "lat": -40.11663689048048,
        "lon": 80.36367476261097,
        "alt_km": 417.14439210755063,
        "timestamp": "2025-12-09T07:41:31.972196+00:00",
        "meta_object_name": "STARLINK-35922",
        "meta_object_id": "2025-263T",
        "meta_epoch": "2025-12-08T22:00:03.000096",
        "meta_mean_motion": 15.5053223,
        "meta_eccentricity": 0.00016792,
        "meta_inclination": 43.0004,
        "meta_ra_of_asc_node": 147.4398,
        "meta_arg_of_pericenter": 276.633,
        "meta_mean_anomaly": 275.6981,
        "meta_ephemeris_type": 0,
        "meta_classification_type": "U",
        "meta_norad_cat_id": 66502,
        "meta_element_set_no": 999,
        "meta_rev_at_epoch": 502,
        "meta_bstar": 0.0011664966,
        "meta_mean_motion_dot": 0.00068579,
        "meta_mean_motion_ddot": 0,
        "tle_line1": "1 66502U 25263T   25342.91670139  .00068579  00000+0  11665-2 0  9994",
        "tle_line2": "2 66502  43.0004 147.4398 0001679 276.6330 275.6981 15.50532230  5029"
      },
      "geometry": {
        "type": "Point",
        "coordinates": [
          80.36367476261097,
          -40.11663689048048
        ]
      }
    },
    {
      "type": "Feature",
      "properties": {
        "norad_id": 66503,
        "name": "STARLINK-35917",
        "group": "last-30-days",
        "lat": -38.90468124645628,
        "lon": 85.06527372534188,
        "alt_km": 417.1378909833966,
        "timestamp": "2025-12-09T07:41:31.972206+00:00",
        "meta_object_name": "STARLINK-35917",
        "meta_object_id": "2025-263U",
        "meta_epoch": "2025-12-08T22:00:03.000096",
        "meta_mean_motion": 15.50630047,
        "meta_eccentricity": 0.00016996,
        "meta_inclination": 43.0004,
        "meta_ra_of_asc_node": 147.43,
        "meta_arg_of_pericenter": 293.9842,
        "meta_mean_anomaly": 262.1416,
        "meta_ephemeris_type": 0,
        "meta_classification_type": "U",
        "meta_norad_cat_id": 66503,
        "meta_element_set_no": 999,
        "meta_rev_at_epoch": 502,
        "meta_bstar": -0.0016170792,
        "meta_mean_motion_dot": -0.00094248,
        "meta_mean_motion_ddot": 0,
        "tle_line1": "1 66503U 25263U   25342.91670139 -.00094248  00000+0 -16171-2 0  9996",
        "tle_line2": "2 66503  43.0004 147.4300 0001699 293.9842 262.1416 15.50630047  5024"
      },
      "geometry": {
        "type": "Point",
        "coordinates": [
          85.06527372534188,
          -38.90468124645628
        ]
      }
    },
    {
      "type": "Feature",
      "properties": {
        "norad_id": 66504,
        "name": "STARLINK-35916",
        "group": "last-30-days",
        "lat": 27.806041481742348,
        "lon": -68.13157064232686,
        "alt_km": 440.33184282914135,
        "timestamp": "2025-12-09T07:41:31.972217+00:00",
        "meta_object_name": "STARLINK-35916",
        "meta_object_id": "2025-263V",
        "meta_epoch": "2025-12-08T22:00:03.000096",
        "meta_mean_motion": 15.40635534,
        "meta_eccentricity": 0.0001451,
        "meta_inclination": 43.0005,
        "meta_ra_of_asc_node": 148.6629,
        "meta_arg_of_pericenter": 276.407,
        "meta_mean_anomaly": 138.0079,
        "meta_ephemeris_type": 0,
        "meta_classification_type": "U",
        "meta_norad_cat_id": 66504,
        "meta_element_set_no": 999,
        "meta_rev_at_epoch": 502,
        "meta_bstar": 0.0026760224,
        "meta_mean_motion_dot": 0.00112907,
        "meta_mean_motion_ddot": 0,
        "tle_line1": "1 66504U 25263V   25342.91670139  .00112907  00000+0  26760-2 0  9993",
        "tle_line2": "2 66504  43.0005 148.6629 0001451 276.4070 138.0079 15.40635534  5029"
      },
      "geometry": {
        "type": "Point",
        "coordinates": [
          -68.13157064232686,
          27.806041481742348
        ]
      }
    },
    {
      "type": "Feature",
      "properties": {
        "norad_id": 66505,
        "name": "STARLINK-34766",
        "group": "last-30-days",
        "lat": -41.129075596135145,
        "lon": 75.51361772330421,
        "alt_km": 417.2003791683492,
        "timestamp": "2025-12-09T07:41:31.972240+00:00",
        "meta_object_name": "STARLINK-34766",
        "meta_object_id": "2025-263W",
        "meta_epoch": "2025-12-08T22:00:03.000096",
        "meta_mean_motion": 15.50609273,
        "meta_eccentricity": 0.00017767,
        "meta_inclination": 43.0001,
        "meta_ra_of_asc_node": 147.4483,
        "meta_arg_of_pericenter": 291.525,
        "meta_mean_anomaly": 256.9517,
        "meta_ephemeris_type": 0,
        "meta_classification_type": "U",
        "meta_norad_cat_id": 66505,
        "meta_element_set_no": 999,
        "meta_rev_at_epoch": 502,
        "meta_bstar": -0.0011794334,
        "meta_mean_motion_dot": -0.00069003,
        "meta_mean_motion_ddot": 0,
        "tle_line1": "1 66505U 25263W   25342.91670139 -.00069003  00000+0 -11794-2 0  9995",
        "tle_line2": "2 66505  43.0001 147.4483 0001776 291.5250 256.9517 15.50609273  5028"
      },
      "geometry": {
        "type": "Point",
        "coordinates": [
          75.51361772330421,
          -41.129075596135145
        ]
      }
    },
    {
      "type": "Feature",
      "properties": {
        "norad_id": 66506,
        "name": "STARLINK-34765",
        "group": "last-30-days",
        "lat": -40.648454623805335,
        "lon": 77.95801415895633,
        "alt_km": 417.23421515175414,
        "timestamp": "2025-12-09T07:41:31.972250+00:00",
        "meta_object_name": "STARLINK-34765",
        "meta_object_id": "2025-263X",
        "meta_epoch": "2025-12-08T22:00:03.000096",
        "meta_mean_motion": 15.50618787,
        "meta_eccentricity": 0.00016944,
        "meta_inclination": 43.0004,
        "meta_ra_of_asc_node": 147.445,
        "meta_arg_of_pericenter": 292.3155,
        "meta_mean_anomaly": 258.0696,
        "meta_ephemeris_type": 0,
        "meta_classification_type": "U",
        "meta_norad_cat_id": 66506,
        "meta_element_set_no": 999,
        "meta_rev_at_epoch": 502,
        "meta_bstar": -0.0014131037,
        "meta_mean_motion_dot": -0.00082492,
        "meta_mean_motion_ddot": 0,
        "tle_line1": "1 66506U 25263X   25342.91670139 -.00082492  00000+0 -14131-2 0  9991",
        "tle_line2": "2 66506  43.0004 147.4450 0001694 292.3155 258.0696 15.50618787  5029"
      },
      "geometry": {
        "type": "Point",
        "coordinates": [
          77.95801415895633,
          -40.648454623805335
        ]
      }
    },
    {
      "type": "Feature",
      "properties": {
        "norad_id": 66507,
        "name": "STARLINK-34767",
        "group": "last-30-days",
        "lat": -39.53535840315987,
        "lon": 82.73091689066817,
        "alt_km": 417.3207292643792,
        "timestamp": "2025-12-09T07:41:31.972260+00:00",
        "meta_object_name": "STARLINK-34767",
        "meta_object_id": "2025-263Y",
        "meta_epoch": "2025-12-08T22:00:03.000096",
        "meta_mean_motion": 15.50545755,
        "meta_eccentricity": 0.00014542,
        "meta_inclination": 43.0004,
        "meta_ra_of_asc_node": 147.4343,
        "meta_arg_of_pericenter": 276.5155,
        "meta_mean_anomaly": 277.7337,
        "meta_ephemeris_type": 0,
        "meta_classification_type": "U",
        "meta_norad_cat_id": 66507,
        "meta_element_set_no": 999,
        "meta_rev_at_epoch": 502,
        "meta_bstar": 0.00051374276,
        "meta_mean_motion_dot": 0.00029876,
        "meta_mean_motion_ddot": 0,
        "tle_line1": "1 66507U 25263Y   25342.91670139  .00029876  00000+0  51374-3 0  9998",
        "tle_line2": "2 66507  43.0004 147.4343 0001454 276.5155 277.7337 15.50545755  5023"
      },
      "geometry": {
        "type": "Point",
        "coordinates": [
          82.73091689066817,
          -39.53535840315987
        ]
      }
    },
    {
      "type": "Feature",
      "properties": {
        "norad_id": 66508,
        "name": "STARLINK-35608",
        "group": "last-30-days",
        "lat": -37.51073462547845,
        "lon": 89.59503833337016,
        "alt_km": 417.05680331588064,
        "timestamp": "2025-12-09T07:41:31.972270+00:00",
        "meta_object_name": "STARLINK-35608",
        "meta_object_id": "2025-263Z",
        "meta_epoch": "2025-12-08T22:00:03.000096",
        "meta_mean_motion": 15.50635187,
        "meta_eccentricity": 0.0001702,
        "meta_inclination": 43.0003,
        "meta_ra_of_asc_node": 147.4203,
        "meta_arg_of_pericenter": 294.7329,
        "meta_mean_anomaly": 265.2203,
        "meta_ephemeris_type": 0,
        "meta_classification_type": "U",
        "meta_norad_cat_id": 66508,
        "meta_element_set_no": 999,
        "meta_rev_at_epoch": 502,
        "meta_bstar": -0.0016554881,
        "meta_mean_motion_dot": -0.00096469,
        "meta_mean_motion_ddot": 0,
        "tle_line1": "1 66508U 25263Z   25342.91670139 -.00096469  00000+0 -16555-2 0  9994",
        "tle_line2": "2 66508  43.0003 147.4203 0001702 294.7329 265.2203 15.50635187  5022"
      },
      "geometry": {
        "type": "Point",
        "coordinates": [
          89.59503833337016,
          -37.51073462547845
        ]
      }
    }
  ]
}